NORAD_CAT_ID,OBJECT_NAME,OBJECT_TYPE,EPOCH,MEAN_MOTION,ECCENTRICITY,INCLINATION,RA_OF_ASC_NODE,ARG_OF_PERICENTER,MEAN_ANOMALY,BSTAR,MEAN_MOTION_DOT,MEAN_MOTION_DDOT,TLE_LINE0,TLE_LINE1,TLE_LINE2,SEMIMAJOR_AXIS,PERIOD,APOGEE,PERIGEE,DECAYED
56460.0,STARLINK-6047,PAYLOAD,2023-08-28 08:56:19,14.98325019,0.0002948,70.0001,314.9286,264.2479,95.8343,-3.4888e-05,-5.09e-06,0.0,0 STARLINK-6047,1 56460U 23064N   23240.37244599 -.00000509  00000-0 -34888-4 0  9991,2 56460  70.0001 314.9286 0002948 264.2479  95.8343 14.98325019 17159,6950.208,96.107,574.122,570.024,0.0
56460.0,STARLINK-6047,PAYLOAD,2023-08-28 18:33:07,14.98333611,0.0003351,69.999,313.9172,270.454,89.6235,-2.1505e-05,-3.5e-06,0.0,0 STARLINK-6047,1 56460U 23064N   23240.77300003 -.00000350  00000-0 -21505-4 0  9994,2 56460  69.9990 313.9172 0003351 270.4540  89.6235 14.98333611 16857,6950.182,96.107,574.376,569.718,0.0
56460.0,STARLINK-6047,PAYLOAD,2023-08-29 08:58:20,14.98331585,0.0003236,69.9991,312.4027,269.2384,90.8404,-0.00010093,-1.297e-05,0.0,0 STARLINK-6047,1 56460U 23064N   23241.37384337 -.00001297  00000-0 -10093-3 0  9993,2 56460  69.9991 312.4027 0003236 269.2384  90.8404 14.98331585 17306,6950.188,96.107,574.302,569.804,0.0
56460.0,STARLINK-6047,PAYLOAD,2023-08-29 16:59:00,14.98334258,0.0003266,69.9991,311.5612,271.1202,88.9583,-6.5216e-05,-8.71e-06,0.0,0 STARLINK-6047,1 56460U 23064N   23241.70764039 -.00000871  00000-0 -65216-4 0  9996,2 56460  69.9991 311.5612 0003266 271.1202  88.9583 14.98334258 16990,6950.18,96.107,574.315,569.775,0.0
56460.0,STARLINK-6047,PAYLOAD,2023-08-30 13:48:45,14.98325055,0.000319,69.9991,309.3729,269.9102,90.1691,4.4027e-05,4.32e-06,0.0,0 STARLINK-6047,1 56460U 23064N   23242.57552448  .00000432  00000-0  44027-4 0  9999,2 56460  69.9991 309.3729 0003190 269.9102  90.1691 14.98325055 17489,6950.208,96.107,574.29,569.856,0.0
56460.0,STARLINK-6047,PAYLOAD,2023-08-30 21:49:25,14.98327549,0.0003197,69.9991,308.5314,266.0375,94.0418,3.7547e-05,3.55e-06,0.0,0 STARLINK-6047,1 56460U 23064N   23242.90932330  .00000355  00000-0  37547-4 0  9991,2 56460  69.9991 308.5314 0003197 266.0375  94.0418 14.98327549 17173,6950.2,96.107,574.287,569.843,0.0
56460.0,STARLINK-6047,PAYLOAD,2023-09-01 10:40:31,14.98328009,0.000331,69.9986,304.6594,270.5353,89.5427,-6.3873e-07,-1.01e-06,0.0,0 STARLINK-6047,1 56460U 23064N   23244.44480548 -.00000101  00000-0 -63873-6 0  9995,2 56460  69.9986 304.6594 0003310 270.5353  89.5427 14.98328009 17763,6950.199,96.107,574.365,569.764,0.0
56460.0,STARLINK-6047,PAYLOAD,2023-09-01 13:52:47,14.98327941,0.0003316,69.9986,304.3226,270.6205,89.4574,-1.8173e-06,-1.15e-06,0.0,0 STARLINK-6047,1 56460U 23064N   23244.57832567 -.00000115  00000-0 -18173-5 0  9998,2 56460  69.9986 304.3226 0003316 270.6205  89.4574 14.98327941 17424,6950.199,96.107,574.369,569.76,0.0
56460.0,STARLINK-6047,PAYLOAD,2023-09-02 10:42:31,14.98336011,0.0003433,69.9978,302.1342,270.041,90.0356,4.5857e-05,4.54e-06,0.0,0 STARLINK-6047,1 56460U 23064N   23245.44619882  .00000454  00000-0  45857-4 0  9990,2 56460  69.9978 302.1342 0003433 270.0410  90.0356 14.98336011 17910,6950.174,96.107,574.425,569.653,0.0
56460.0,STARLINK-6047,PAYLOAD,2023-09-02 12:18:39,14.98336217,0.0003423,69.9984,301.9658,270.2939,89.7827,5.1478e-05,5.21e-06,0.0,0 STARLINK-6047,1 56460U 23064N   23245.51295816  .00000521  00000-0  51478-4 0  9996,2 56460  69.9984 301.9658 0003423 270.2939  89.7827 14.98336217 17568,6950.174,96.107,574.418,569.66,0.0
56460.0,STARLINK-6047,PAYLOAD,2023-09-02 13:54:47,14.9833675,0.0003389,69.999,301.7975,270.461,89.6161,6.5046e-05,6.83e-06,0.0,0 STARLINK-6047,1 56460U 23064N   23245.57971698  .00000683  00000-0  65046-4 0  9996,2 56460  69.9990 301.7975 0003389 270.4610  89.6161 14.98336750 17577,6950.172,96.107,574.392,569.682,0.0
56460.0,STARLINK-6047,PAYLOAD,2023-09-03 10:44:32,14.98334312,0.0003336,69.999,299.6093,270.5144,89.5633,4.416e-05,4.34e-06,0.0,0 STARLINK-6047,1 56460U 23064N   23246.44759646  .00000434  00000-0  44160-4 0  9998,2 56460  69.9990 299.6093 0003336 270.5144  89.5633 14.98334312 18068,6950.18,96.107,574.363,569.726,0.0
56460.0,STARLINK-6047,PAYLOAD,2023-09-04 02:45:53,14.98326882,0.0003144,69.9992,297.926,271.0709,89.009,-0.0001362,-1.718e-05,0.0,0 STARLINK-6047,1 56460U 23064N   23247.11520564 -.00001718  00000-0 -13620-3 0  9992,2 56460  69.9992 297.9260 0003144 271.0709  89.0090 14.98326882 18163,6950.203,96.107,574.253,569.882,0.0
56460.0,STARLINK-6047,PAYLOAD,2023-09-04 05:58:10,14.98325349,0.000314,69.9994,297.5894,271.0999,88.9801,-0.00014781,-1.856e-05,0.0,0 STARLINK-6047,1 56460U 23064N   23247.24872716 -.00001856  00000-0 -14781-3 0  9997,2 56460  69.9994 297.5894 0003140 271.0999  88.9801 14.98325349 17828,6950.207,96.107,574.255,569.89,0.0
56460.0,STARLINK-6047,PAYLOAD,2023-09-05 02:47:54,14.98317754,0.0003294,69.999,295.401,265.6323,94.446,5.7712e-05,5.95e-06,0.0,0 STARLINK-6047,1 56460U 23064N   23248.11660633  .00000595  00000-0  57712-4 0  9996,2 56460  69.9990 295.4010 0003294 265.6323  94.4460 14.98317754 18310,6950.231,96.108,574.385,569.806,0.0
56460.0,STARLINK-6047,PAYLOAD,2023-09-06 02:49:55,14.98328275,0.0003315,69.9989,292.8759,268.108,91.9699,0.00012098,1.351e-05,0.0,0 STARLINK-6047,1 56460U 23064N   23249.11800020  .00001351  00000-0  12098-3 0  9991,2 56460  69.9989 292.8759 0003315 268.1080  91.9699 14.98328275 18463,6950.198,96.107,574.367,569.759,0.0
56460.0,STARLINK-6047,PAYLOAD,2023-09-06 12:26:43,14.98332427,0.0003414,69.9989,291.866,267.5691,92.5078,0.00014728,1.665e-05,0.0,0 STARLINK-6047,1 56460U 23064N   23249.51855660  .00001665  00000-0  14728-3 0  9995,2 56460  69.9989 291.8660 0003414 267.5691  92.5078 14.98332427 18163,6950.185,96.107,574.423,569.678,0.0
56460.0,STARLINK-6047,PAYLOAD,2023-09-06 20:27:23,14.9832953,0.000356,69.9989,291.0265,269.9197,90.1554,9.192e-05,1.004e-05,0.0,0 STARLINK-6047,1 56460U 23064N   23249.85235901  .00001004  00000-0  91920-4 0  9999,2 56460  69.9989 291.0265 0003560 269.9197  90.1554 14.98329530 18215,6950.194,96.107,574.534,569.585,0.0
56460.0,STARLINK-6047,PAYLOAD,2023-09-07 07:40:20,14.98326047,0.000331,69.9989,289.8459,269.1127,90.9653,-8.9628e-06,-2e-06,0.0,0 STARLINK-6047,1 56460U 23064N   23250.31968526 -.00000200  00000-0 -89628-5 0  9990,2 56460  69.9989 289.8459 0003310 269.1127  90.9653 14.98326047 18648,6950.205,96.107,574.371,569.77,0.0
56460.0,STARLINK-6047,PAYLOAD,2023-09-07 12:28:44,14.98328465,0.0003397,69.9988,289.3407,268.8942,91.1828,-7.3653e-06,-1.81e-06,0.0,0 STARLINK-6047,1 56460U 23064N   23250.51996326 -.00000181  00000-0 -73653-5 0  9990,2 56460  69.9988 289.3407 0003397 268.8942  91.1828 14.98328465 18318,6950.198,96.107,574.424,569.702,0.0
56460.0,STARLINK-6047,PAYLOAD,2023-09-08 02:53:57,14.98334251,0.0003315,69.999,287.8255,269.43,90.6479,-4.0548e-05,-5.77e-06,0.0,0 STARLINK-6047,1 56460U 23064N   23251.12080028 -.00000577  00000-0 -40548-4 0  9996,2 56460  69.9990 287.8255 0003315 269.4300  90.6479 14.98334251 18765,6950.18,96.107,574.349,569.741,0.0
56460.0,STARLINK-6047,PAYLOAD,2023-09-08 12:30:45,14.98334043,0.0003365,69.999,286.8157,270.3827,89.6946,-4.5317e-05,-6.34e-06,0.0,0 STARLINK-6047,1 56460U 23064N   23251.52135960 -.00000634  00000-0 -45317-4 0  9999,2 56460  69.9990 286.8157 0003365 270.3827  89.6946 14.98334043 18468,6950.18,96.107,574.384,569.707,0.0
56460.0,STARLINK-6047,PAYLOAD,2023-09-09 02:55:58,14.98329231,0.0003332,69.9989,285.3008,270.7022,89.3755,2.2642e-05,1.77e-06,0.0,0 STARLINK-6047,1 56460U 23064N   23252.12220001  .00000177  00000-0  22642-4 0  9993,2 56460  69.9989 285.3008 0003332 270.7022  89.3755 14.98329231 18918,6950.195,96.107,574.376,569.744,0.0
56460.0,STARLINK-6047,PAYLOAD,2023-09-09 12:32:46,14.9833096,0.0003328,69.999,284.2911,272.2168,87.861,2.1263e-05,1.61e-06,0.0,0 STARLINK-6047,1 56460U 23064N   23252.52275931  .00000161  00000-0  21263-4 0  9990,2 56460  69.9990 284.2911 0003328 272.2168  87.8610 14.98330960 18615,6950.19,96.107,574.368,569.742,0.0
56460.0,STARLINK-6047,PAYLOAD,2023-09-10 10:58:39,14.98332143,0.0002902,69.9989,281.933,264.4878,95.595,-5.8229e-07,-1e-06,0.0,0 STARLINK-6047,1 56460U 23064N   23253.45739816 -.00000100  00000-0 -58229-6 0  9999,2 56460  69.9989 281.9330 0002902 264.4878  95.5950 14.98332143 19114,6950.186,96.107,574.068,570.034,0.0
56460.0,STARLINK-6047,PAYLOAD,2023-09-10 12:34:47,14.98331574,0.0003135,69.9989,281.7649,270.6942,89.3858,2.4787e-05,2.03e-06,0.0,0 STARLINK-6047,1 56460U 23064N   23253.52415795  .00000203  00000-0  24787-4 0  9996,2 56460  69.9989 281.7649 0003135 270.6942  89.3858 14.98331574 18760,6950.188,96.107,574.232,569.874,0.0
56460.0,STARLINK-6047,PAYLOAD,2023-09-11 11:00:40,14.9832624,0.0003338,69.9989,279.4089,270.6118,89.4658,1.266e-06,-7.8e-07,0.0,0 STARLINK-6047,1 56460U 23064N   23254.45880153 -.00000078  00000-0  12660-5 0  9992,2 56460  69.9989 279.4089 0003338 270.6118  89.4658 14.98326240 18901,6950.205,96.107,574.389,569.75,0.0
56460.0,STARLINK-6047,PAYLOAD,2023-09-11 14:12:56,14.98327747,0.0003412,69.9987,279.0718,271.487,88.5898,1.8358e-05,1.26e-06,0.0,0 STARLINK-6047,1 56460U 23064N   23254.59232017  .00000126  00000-0  18358-4 0  9999,2 56460  69.9987 279.0718 0003412 271.4870  88.5898 14.98327747 19282,6950.2,96.107,574.436,569.693,0.0
56460.0,STARLINK-6047,PAYLOAD,2023-09-12 11:02:41,14.98330434,0.0003354,69.9987,276.8839,268.8414,91.236,8.3803e-06,7e-08,0.0,0 STARLINK-6047,1 56460U 23064N   23255.46019835  .00000007  00000-0  83803-5 0  9993,2 56460  69.9987 276.8839 0003354 268.8414  91.2360 14.98330434 19057,6950.192,96.107,574.388,569.725,0.0
56460.0,STARLINK-6047,PAYLOAD,2023-09-13 03:04:01,14.98329796,0.0003413,69.9985,275.2004,270.1988,89.878,4.8573e-05,4.87e-06,0.0,0 STARLINK-6047,1 56460U 23064N   23256.12779708  .00000487  00000-0  48573-4 0  9995,2 56460  69.9985 275.2004 0003413 270.1988  89.8780 14.98329796 19519,6950.194,96.107,574.431,569.686,0.0
